[{"OBJECT_NAME":"SHIYAN-6 01 (SY-6 01)","OBJECT_ID":"2018-094B","EPOCH":"2026-03-09T23:04:36.967872","MEAN_MOTION":15.28649156,"ECCENTRICITY":0.00144834,"INCLINATION":97.3669,"RA_OF_ASC_NODE":84.0964,"ARG_OF_PERICENTER":135.6758,"MEAN_ANOMALY":224.5644,"EPHEMERIS_TYPE":0,"CLASSIFICATION_TYPE":"U","NORAD_CAT_ID":43711,"ELEMENT_SET_NO":999,"REV_AT_EPOCH":40632,"BSTAR":0.00024768444,"MEAN_MOTION_DOT":6.847e-5,"MEAN_MOTION_DDOT":0},{"OBJECT_NAME":"STARLINK-31597","OBJECT_ID":"2024-068K","EPOCH":"2026-03-09T07:19:40.723680","MEAN_MOTION":15.27578443,"ECCENTRICITY":0.00011514,"INCLINATION":43.0054,"RA_OF_ASC_NODE":36.711,"ARG_OF_PERICENTER":266.8565,"MEAN_ANOMALY":93.2155,"EPHEMERIS_TYPE":0,"CLASSIFICATION_TYPE":"U","NORAD_CAT_ID":59464,"ELEMENT_SET_NO":999,"REV_AT_EPOCH":10841,"BSTAR":-4.08084e-7,"MEAN_MOTION_DOT":-2.73e-6,"MEAN_MOTION_DDOT":0}]
